<?xml version="1.0" encoding="UTF-8"?>
<gpx creator="StravaGPX" version="1.1" xmlns="http://www.topografix.com/GPX/1/1" xmlns:xsi="http://www.w3.org/2001/XMLSchema-instance" xsi:schemaLocation="http://www.topografix.com/GPX/1/1 http://www.topografix.com/GPX/1/1/gpx.xsd">
 <metadata>
  <name>A ride with me - website</name>
  <author>
   <name>Kris Lemieux</name>
   <link href="https://www.strava.com/athletes/61973370"/>
  </author>
  <copyright author="OpenStreetMap contributors">
   <year>2020</year>
   <license>https://www.openstreetmap.org/copyright</license>
  </copyright>
  <link href="https://www.strava.com/routes/3532187861600581902"/>
 </metadata>
 <wpt lat="48.42833" lon="-123.36446">
  <name>Shift Browser</name>
  <desc></desc>
  <sym>Generic</sym>
  <type>Generic</type>
 </wpt>
 <wpt lat="48.42622" lon="-123.37014">
  <name>Helm Operations</name>
  <desc></desc>
  <sym>Generic</sym>
  <type>Generic</type>
 </wpt>
 <wpt lat="48.43584" lon="-123.41962">
  <name>Island Temperature Controls</name>
  <desc></desc>
  <sym>Generic</sym>
  <type>Generic</type>
 </wpt>
 <wpt lat="48.46054" lon="-123.31047">
  <name>UVic 1</name>
  <desc></desc>
  <sym>Generic</sym>
  <type>Generic</type>
 </wpt>
 <wpt lat="48.46158" lon="-123.30732">
  <name>UVic 2</name>
  <desc></desc>
  <sym>Generic</sym>
  <type>Generic</type>
 </wpt>
 <trk>
  <name>A ride with me - website</name>
  <link href="https://www.strava.com/routes/3532187861600581902"/>
  <type>cycling</type>
  <trkseg>
   <trkpt lat="48.42855" lon="-123.36444000000002">
    <ele>21.94</ele>
   </trkpt>
   <trkpt lat="48.428070000000005" lon="-123.36448000000001">
    <ele>21.94</ele>
   </trkpt>
   <trkpt lat="48.42833" lon="-123.36446000000001">
    <ele>21.94</ele>
   </trkpt>
   <trkpt lat="48.428070000000005" lon="-123.36448000000001">
    <ele>21.94</ele>
   </trkpt>
   <trkpt lat="48.428070000000005" lon="-123.36426000000002">
    <ele>22.12</ele>
   </trkpt>
   <trkpt lat="48.42793334730752" lon="-123.3629899931656">
    <ele>23.520000000000003</ele>
   </trkpt>
   <trkpt lat="48.42779668064039" lon="-123.36171999316157">
    <ele>24.59</ele>
   </trkpt>
   <trkpt lat="48.42766" lon="-123.36045000000001">
    <ele>25.640000000000004</ele>
   </trkpt>
   <trkpt lat="48.42757" lon="-123.35917">
    <ele>27.290000000000003</ele>
   </trkpt>
   <trkpt lat="48.42752" lon="-123.35821000000001">
    <ele>28.430000000000003</ele>
   </trkpt>
   <trkpt lat="48.42748" lon="-123.35766000000001">
    <ele>29.26</ele>
   </trkpt>
   <trkpt lat="48.427435002437655" lon="-123.35690999934975">
    <ele>30.01</ele>
   </trkpt>
   <trkpt lat="48.42739" lon="-123.35616000000002">
    <ele>30.87</ele>
   </trkpt>
   <trkpt lat="48.42698000000001" lon="-123.35615000000001">
    <ele>30.09</ele>
   </trkpt>
   <trkpt lat="48.42636" lon="-123.35626">
    <ele>28.520000000000003</ele>
   </trkpt>
   <trkpt lat="48.42574333354849" lon="-123.35642667071804">
    <ele>25.59</ele>
   </trkpt>
   <trkpt lat="48.42512666685629" lon="-123.35659333739156">
    <ele>24.040000000000003</ele>
   </trkpt>
   <trkpt lat="48.424510000000005" lon="-123.35676000000001">
    <ele>21.470000000000002</ele>
   </trkpt>
   <trkpt lat="48.42376" lon="-123.35692000000002">
    <ele>23.250000000000004</ele>
   </trkpt>
   <trkpt lat="48.423750000000005" lon="-123.35681000000001">
    <ele>23.3</ele>
   </trkpt>
   <trkpt lat="48.42387860797208" lon="-123.35799569628387">
    <ele>22.930000000000003</ele>
   </trkpt>
   <trkpt lat="48.42400720376305" lon="-123.35918139856783">
    <ele>24.43</ele>
   </trkpt>
   <trkpt lat="48.42413578737276" lon="-123.36036710685138">
    <ele>25.830000000000002</ele>
   </trkpt>
   <trkpt lat="48.42426435880111" lon="-123.36155282113401">
    <ele>25.79</ele>
   </trkpt>
   <trkpt lat="48.424392918048" lon="-123.36273854141521">
    <ele>25.16</ele>
   </trkpt>
   <trkpt lat="48.4245214651133" lon="-123.36392426769444">
    <ele>23.87</ele>
   </trkpt>
   <trkpt lat="48.42465000000001" lon="-123.36511000000002">
    <ele>22.42</ele>
   </trkpt>
   <trkpt lat="48.42468" lon="-123.36552">
    <ele>21.86</ele>
   </trkpt>
   <trkpt lat="48.42477" lon="-123.36633">
    <ele>20.68</ele>
   </trkpt>
   <trkpt lat="48.424760000000006" lon="-123.36650000000002">
    <ele>20.470000000000002</ele>
   </trkpt>
   <trkpt lat="48.424800000000005" lon="-123.36683000000001">
    <ele>20.3</ele>
   </trkpt>
   <trkpt lat="48.42484" lon="-123.36692000000001">
    <ele>19.900000000000002</ele>
   </trkpt>
   <trkpt lat="48.42493334077092" lon="-123.36784666323754">
    <ele>18.97</ele>
   </trkpt>
   <trkpt lat="48.42502667410168" lon="-123.36877332987862">
    <ele>15.870000000000001</ele>
   </trkpt>
   <trkpt lat="48.42512000000001" lon="-123.36970000000001">
    <ele>13.170000000000002</ele>
   </trkpt>
   <trkpt lat="48.42515" lon="-123.36985000000001">
    <ele>12.88</ele>
   </trkpt>
   <trkpt lat="48.42551" lon="-123.36991">
    <ele>12.690000000000001</ele>
   </trkpt>
   <trkpt lat="48.42591" lon="-123.37001000000001">
    <ele>12.96</ele>
   </trkpt>
   <trkpt lat="48.4262" lon="-123.37014">
    <ele>12.900000000000002</ele>
   </trkpt>
   <trkpt lat="48.42622" lon="-123.37014">
    <ele>12.900000000000002</ele>
   </trkpt>
   <trkpt lat="48.42638" lon="-123.37021000000001">
    <ele>12.93</ele>
   </trkpt>
   <trkpt lat="48.426390000000005" lon="-123.37021000000001">
    <ele>12.93</ele>
   </trkpt>
   <trkpt lat="48.42651000000001" lon="-123.37027">
    <ele>12.93</ele>
   </trkpt>
   <trkpt lat="48.42656" lon="-123.37031">
    <ele>12.93</ele>
   </trkpt>
   <trkpt lat="48.426660000000005" lon="-123.37036">
    <ele>12.88</ele>
   </trkpt>
   <trkpt lat="48.426730000000006" lon="-123.37036">
    <ele>12.88</ele>
   </trkpt>
   <trkpt lat="48.42692" lon="-123.37042000000001">
    <ele>12.71</ele>
   </trkpt>
   <trkpt lat="48.427080000000004" lon="-123.37043000000001">
    <ele>12.620000000000001</ele>
   </trkpt>
   <trkpt lat="48.42728" lon="-123.37041">
    <ele>12.55</ele>
   </trkpt>
   <trkpt lat="48.427420000000005" lon="-123.37037000000001">
    <ele>12.540000000000001</ele>
   </trkpt>
   <trkpt lat="48.42765000000001" lon="-123.37027">
    <ele>12.55</ele>
   </trkpt>
   <trkpt lat="48.427800000000005" lon="-123.37016000000001">
    <ele>12.560000000000002</ele>
   </trkpt>
   <trkpt lat="48.42848" lon="-123.36982">
    <ele>13.15</ele>
   </trkpt>
   <trkpt lat="48.428560000000004" lon="-123.36976000000001">
    <ele>13.370000000000001</ele>
   </trkpt>
   <trkpt lat="48.428560000000004" lon="-123.37063">
    <ele>13.18</ele>
   </trkpt>
   <trkpt lat="48.428490000000004" lon="-123.37165000000002">
    <ele>13.430000000000001</ele>
   </trkpt>
   <trkpt lat="48.4283850019653" lon="-123.37233000165021">
    <ele>13.120000000000001</ele>
   </trkpt>
   <trkpt lat="48.42828" lon="-123.37301000000001">
    <ele>11.840000000000002</ele>
   </trkpt>
   <trkpt lat="48.42828" lon="-123.37313">
    <ele>11.510000000000002</ele>
   </trkpt>
   <trkpt lat="48.42832000000001" lon="-123.37364000000001">
    <ele>11.14</ele>
   </trkpt>
   <trkpt lat="48.42841000000001" lon="-123.37409000000001">
    <ele>11.64</ele>
   </trkpt>
   <trkpt lat="48.427960000000006" lon="-123.37426">
    <ele>12.910000000000002</ele>
   </trkpt>
   <trkpt lat="48.4279" lon="-123.3743">
    <ele>12.910000000000002</ele>
   </trkpt>
   <trkpt lat="48.42786" lon="-123.37440000000001">
    <ele>13.06</ele>
   </trkpt>
   <trkpt lat="48.427723342830426" lon="-123.37544667225566">
    <ele>12.84</ele>
   </trkpt>
   <trkpt lat="48.427586676169" lon="-123.37649333888203">
    <ele>12.870000000000001</ele>
   </trkpt>
   <trkpt lat="48.42745000000001" lon="-123.37754000000001">
    <ele>13.47</ele>
   </trkpt>
   <trkpt lat="48.427330000000005" lon="-123.37838">
    <ele>12.4</ele>
   </trkpt>
   <trkpt lat="48.42732" lon="-123.37890000000002">
    <ele>12.090000000000002</ele>
   </trkpt>
   <trkpt lat="48.42737" lon="-123.37946000000001">
    <ele>12.22</ele>
   </trkpt>
   <trkpt lat="48.42748" lon="-123.37994">
    <ele>12.430000000000001</ele>
   </trkpt>
   <trkpt lat="48.427620000000005" lon="-123.38034">
    <ele>12.63</ele>
   </trkpt>
   <trkpt lat="48.42785000000001" lon="-123.38079">
    <ele>12.72</ele>
   </trkpt>
   <trkpt lat="48.428090000000005" lon="-123.38115">
    <ele>13.690000000000001</ele>
   </trkpt>
   <trkpt lat="48.4286" lon="-123.38168000000002">
    <ele>14.24</ele>
   </trkpt>
   <trkpt lat="48.428740000000005" lon="-123.38191">
    <ele>14.300000000000002</ele>
   </trkpt>
   <trkpt lat="48.42889" lon="-123.38227">
    <ele>14.21</ele>
   </trkpt>
   <trkpt lat="48.428960000000004" lon="-123.38253000000002">
    <ele>13.850000000000001</ele>
   </trkpt>
   <trkpt lat="48.42911000349417" lon="-123.38342999725448">
    <ele>13.940000000000001</ele>
   </trkpt>
   <trkpt lat="48.429260000000006" lon="-123.38433">
    <ele>14.640000000000002</ele>
   </trkpt>
   <trkpt lat="48.42936" lon="-123.38451">
    <ele>14.870000000000001</ele>
   </trkpt>
   <trkpt lat="48.42949" lon="-123.3846">
    <ele>15.19</ele>
   </trkpt>
   <trkpt lat="48.42958" lon="-123.38464">
    <ele>15.47</ele>
   </trkpt>
   <trkpt lat="48.42980000000001" lon="-123.38463000000002">
    <ele>16.42</ele>
   </trkpt>
   <trkpt lat="48.42980000000001" lon="-123.38481000000002">
    <ele>16.580000000000002</ele>
   </trkpt>
   <trkpt lat="48.43003" lon="-123.38482">
    <ele>17.29</ele>
   </trkpt>
   <trkpt lat="48.430040000000005" lon="-123.38536">
    <ele>17.61</ele>
   </trkpt>
   <trkpt lat="48.43018000000001" lon="-123.38614000000001">
    <ele>18.13</ele>
   </trkpt>
   <trkpt lat="48.43025" lon="-123.38717000000001">
    <ele>18.080000000000002</ele>
   </trkpt>
   <trkpt lat="48.430400000000006" lon="-123.38796">
    <ele>17.810000000000002</ele>
   </trkpt>
   <trkpt lat="48.430440000000004" lon="-123.38809">
    <ele>17.810000000000002</ele>
   </trkpt>
   <trkpt lat="48.430490000000006" lon="-123.38854">
    <ele>17.63</ele>
   </trkpt>
   <trkpt lat="48.430510000000005" lon="-123.38858">
    <ele>17.6</ele>
   </trkpt>
   <trkpt lat="48.430620000000005" lon="-123.38857000000002">
    <ele>17.59</ele>
   </trkpt>
   <trkpt lat="48.430670000000006" lon="-123.38862">
    <ele>17.59</ele>
   </trkpt>
   <trkpt lat="48.430960000000006" lon="-123.38908">
    <ele>16.450000000000003</ele>
   </trkpt>
   <trkpt lat="48.431140000000006" lon="-123.3893">
    <ele>16.240000000000002</ele>
   </trkpt>
   <trkpt lat="48.431360000000005" lon="-123.38952">
    <ele>16.19</ele>
   </trkpt>
   <trkpt lat="48.43159000000001" lon="-123.3897">
    <ele>16.23</ele>
   </trkpt>
   <trkpt lat="48.43238" lon="-123.3901">
    <ele>18.160000000000004</ele>
   </trkpt>
   <trkpt lat="48.432410000000004" lon="-123.39014000000002">
    <ele>18.160000000000004</ele>
   </trkpt>
   <trkpt lat="48.43245" lon="-123.39005000000002">
    <ele>18.2</ele>
   </trkpt>
   <trkpt lat="48.43254" lon="-123.39007000000001">
    <ele>18.28</ele>
   </trkpt>
   <trkpt lat="48.43267" lon="-123.39019">
    <ele>18.330000000000002</ele>
   </trkpt>
   <trkpt lat="48.43296" lon="-123.39053000000001">
    <ele>18.46</ele>
   </trkpt>
   <trkpt lat="48.43328" lon="-123.39113">
    <ele>19.200000000000003</ele>
   </trkpt>
   <trkpt lat="48.43338000000001" lon="-123.39137000000001">
    <ele>18.910000000000004</ele>
   </trkpt>
   <trkpt lat="48.43372500494144" lon="-123.39243999267786">
    <ele>17.88</ele>
   </trkpt>
   <trkpt lat="48.434070000000006" lon="-123.39351">
    <ele>19.5</ele>
   </trkpt>
   <trkpt lat="48.43439801795465" lon="-123.39452797370421">
    <ele>19.85</ele>
   </trkpt>
   <trkpt lat="48.43472602693096" lon="-123.39554596055243">
    <ele>20.51</ele>
   </trkpt>
   <trkpt lat="48.43505402692864" lon="-123.39656396054461">
    <ele>20.630000000000003</ele>
   </trkpt>
   <trkpt lat="48.43538201794752" lon="-123.39758197368077">
    <ele>20.8</ele>
   </trkpt>
   <trkpt lat="48.43571000000001" lon="-123.39860000000002">
    <ele>20.490000000000002</ele>
   </trkpt>
   <trkpt lat="48.43589" lon="-123.39893000000001">
    <ele>20.610000000000003</ele>
   </trkpt>
   <trkpt lat="48.435880000000004" lon="-123.39917000000001">
    <ele>20.540000000000003</ele>
   </trkpt>
   <trkpt lat="48.43625334480633" lon="-123.4003199831448">
    <ele>18.840000000000003</ele>
   </trkpt>
   <trkpt lat="48.436626678154774" lon="-123.40146998319099">
    <ele>18.430000000000003</ele>
   </trkpt>
   <trkpt lat="48.437000000000005" lon="-123.40262000000001">
    <ele>19.32</ele>
   </trkpt>
   <trkpt lat="48.43701" lon="-123.40271000000001">
    <ele>19.15</ele>
   </trkpt>
   <trkpt lat="48.43727333905533" lon="-123.403523324873">
    <ele>19.24</ele>
   </trkpt>
   <trkpt lat="48.43753667237942" lon="-123.40433665817773">
    <ele>20.42</ele>
   </trkpt>
   <trkpt lat="48.4378" lon="-123.40515">
    <ele>21.34</ele>
   </trkpt>
   <trkpt lat="48.438" lon="-123.406">
    <ele>20.28</ele>
   </trkpt>
   <trkpt lat="48.43807" lon="-123.40616000000001">
    <ele>20.07</ele>
   </trkpt>
   <trkpt lat="48.438120000000005" lon="-123.40619000000001">
    <ele>20.07</ele>
   </trkpt>
   <trkpt lat="48.43818" lon="-123.40726000000001">
    <ele>20.540000000000003</ele>
   </trkpt>
   <trkpt lat="48.43817000000001" lon="-123.40790000000001">
    <ele>21.45</ele>
   </trkpt>
   <trkpt lat="48.438140000000004" lon="-123.40797">
    <ele>21.45</ele>
   </trkpt>
   <trkpt lat="48.43801432287519" lon="-123.40916573204281">
    <ele>22.160000000000004</ele>
   </trkpt>
   <trkpt lat="48.43788863336305" lon="-123.41036145816918">
    <ele>22.150000000000002</ele>
   </trkpt>
   <trkpt lat="48.43776293146369" lon="-123.4115571783785">
    <ele>21.2</ele>
   </trkpt>
   <trkpt lat="48.4376372171772" lon="-123.4127528926703">
    <ele>20.94</ele>
   </trkpt>
   <trkpt lat="48.43751149050374" lon="-123.41394860104404">
    <ele>20.740000000000002</ele>
   </trkpt>
   <trkpt lat="48.4373857514434" lon="-123.4151443034992">
    <ele>20.270000000000003</ele>
   </trkpt>
   <trkpt lat="48.43726" lon="-123.41634">
    <ele>21.34</ele>
   </trkpt>
   <trkpt lat="48.43722" lon="-123.41683">
    <ele>21.580000000000002</ele>
   </trkpt>
   <trkpt lat="48.43721000000001" lon="-123.41728">
    <ele>22.53</ele>
   </trkpt>
   <trkpt lat="48.43723000000001" lon="-123.41795">
    <ele>23.39</ele>
   </trkpt>
   <trkpt lat="48.437250000000006" lon="-123.41824000000001">
    <ele>24.1</ele>
   </trkpt>
   <trkpt lat="48.437250000000006" lon="-123.41826">
    <ele>24.12</ele>
   </trkpt>
   <trkpt lat="48.437290000000004" lon="-123.41863000000001">
    <ele>24.98</ele>
   </trkpt>
   <trkpt lat="48.437310000000004" lon="-123.41868000000001">
    <ele>24.98</ele>
   </trkpt>
   <trkpt lat="48.43732000000001" lon="-123.41886000000001">
    <ele>25.130000000000003</ele>
   </trkpt>
   <trkpt lat="48.43713" lon="-123.41910000000001">
    <ele>25.290000000000003</ele>
   </trkpt>
   <trkpt lat="48.437090000000005" lon="-123.41905000000001">
    <ele>25.45</ele>
   </trkpt>
   <trkpt lat="48.437110000000004" lon="-123.41877000000001">
    <ele>25.18</ele>
   </trkpt>
   <trkpt lat="48.437000000000005" lon="-123.41837000000001">
    <ele>24.66</ele>
   </trkpt>
   <trkpt lat="48.4369" lon="-123.41784000000001">
    <ele>24.270000000000003</ele>
   </trkpt>
   <trkpt lat="48.436800000000005" lon="-123.41759">
    <ele>24.200000000000003</ele>
   </trkpt>
   <trkpt lat="48.43663" lon="-123.41732">
    <ele>24.26</ele>
   </trkpt>
   <trkpt lat="48.43645" lon="-123.41717000000001">
    <ele>24.220000000000002</ele>
   </trkpt>
   <trkpt lat="48.4363" lon="-123.4171">
    <ele>24.200000000000003</ele>
   </trkpt>
   <trkpt lat="48.43614" lon="-123.41709000000002">
    <ele>23.950000000000003</ele>
   </trkpt>
   <trkpt lat="48.43589" lon="-123.41715">
    <ele>22.750000000000004</ele>
   </trkpt>
   <trkpt lat="48.43521000070507" lon="-123.41752500496614">
    <ele>19.340000000000003</ele>
   </trkpt>
   <trkpt lat="48.43453" lon="-123.4179">
    <ele>13.860000000000001</ele>
   </trkpt>
   <trkpt lat="48.434160000000006" lon="-123.41794000000002">
    <ele>12.530000000000001</ele>
   </trkpt>
   <trkpt lat="48.434000000000005" lon="-123.41787000000001">
    <ele>12.34</ele>
   </trkpt>
   <trkpt lat="48.43388" lon="-123.41782">
    <ele>12.31</ele>
   </trkpt>
   <trkpt lat="48.43347000000001" lon="-123.41749000000002">
    <ele>12.900000000000002</ele>
   </trkpt>
   <trkpt lat="48.433310000000006" lon="-123.41755">
    <ele>13.120000000000001</ele>
   </trkpt>
   <trkpt lat="48.433240000000005" lon="-123.41759">
    <ele>13.0</ele>
   </trkpt>
   <trkpt lat="48.43321" lon="-123.41764">
    <ele>12.89</ele>
   </trkpt>
   <trkpt lat="48.43318000000001" lon="-123.41780000000001">
    <ele>12.59</ele>
   </trkpt>
   <trkpt lat="48.433220000000006" lon="-123.41854000000001">
    <ele>10.72</ele>
   </trkpt>
   <trkpt lat="48.43321" lon="-123.41936000000001">
    <ele>9.600000000000001</ele>
   </trkpt>
   <trkpt lat="48.433220000000006" lon="-123.42016000000001">
    <ele>8.540000000000001</ele>
   </trkpt>
   <trkpt lat="48.433670000038965" lon="-123.4201100004397">
    <ele>8.84</ele>
   </trkpt>
   <trkpt lat="48.43412000000001" lon="-123.42006">
    <ele>13.39</ele>
   </trkpt>
   <trkpt lat="48.43430000000001" lon="-123.42001">
    <ele>14.25</ele>
   </trkpt>
   <trkpt lat="48.434470000000005" lon="-123.41992">
    <ele>15.780000000000003</ele>
   </trkpt>
   <trkpt lat="48.434630000000006" lon="-123.41978000000002">
    <ele>16.92</ele>
   </trkpt>
   <trkpt lat="48.43478" lon="-123.41962000000001">
    <ele>17.59</ele>
   </trkpt>
   <trkpt lat="48.4352" lon="-123.41884000000002">
    <ele>22.04</ele>
   </trkpt>
   <trkpt lat="48.435840000000006" lon="-123.41962000000001">
    <ele>28.560000000000002</ele>
   </trkpt>
   <trkpt lat="48.4352" lon="-123.41884000000002">
    <ele>22.04</ele>
   </trkpt>
   <trkpt lat="48.43478" lon="-123.41962000000001">
    <ele>17.59</ele>
   </trkpt>
   <trkpt lat="48.434630000000006" lon="-123.41978000000002">
    <ele>16.92</ele>
   </trkpt>
   <trkpt lat="48.434470000000005" lon="-123.41992">
    <ele>15.780000000000003</ele>
   </trkpt>
   <trkpt lat="48.43430000000001" lon="-123.42001">
    <ele>14.25</ele>
   </trkpt>
   <trkpt lat="48.43412000000001" lon="-123.42006">
    <ele>11.600000000000001</ele>
   </trkpt>
   <trkpt lat="48.43366999998269" lon="-123.42011000044597">
    <ele>8.84</ele>
   </trkpt>
   <trkpt lat="48.433220000000006" lon="-123.42016000000001">
    <ele>8.540000000000001</ele>
   </trkpt>
   <trkpt lat="48.43321" lon="-123.41936000000001">
    <ele>9.600000000000001</ele>
   </trkpt>
   <trkpt lat="48.433170000000004" lon="-123.41906000000002">
    <ele>9.74</ele>
   </trkpt>
   <trkpt lat="48.43313000386765" lon="-123.41811499923338">
    <ele>10.950000000000001</ele>
   </trkpt>
   <trkpt lat="48.43309000000001" lon="-123.41717000000001">
    <ele>13.81</ele>
   </trkpt>
   <trkpt lat="48.43348500030196" lon="-123.41749499734539">
    <ele>12.900000000000002</ele>
   </trkpt>
   <trkpt lat="48.43388" lon="-123.41782">
    <ele>12.31</ele>
   </trkpt>
   <trkpt lat="48.434160000000006" lon="-123.41794000000002">
    <ele>12.75</ele>
   </trkpt>
   <trkpt lat="48.43453" lon="-123.4179">
    <ele>14.39</ele>
   </trkpt>
   <trkpt lat="48.435210000513294" lon="-123.41752500507191">
    <ele>19.340000000000003</ele>
   </trkpt>
   <trkpt lat="48.43589" lon="-123.41715">
    <ele>22.750000000000004</ele>
   </trkpt>
   <trkpt lat="48.43614" lon="-123.41709000000002">
    <ele>23.950000000000003</ele>
   </trkpt>
   <trkpt lat="48.4363" lon="-123.4171">
    <ele>24.200000000000003</ele>
   </trkpt>
   <trkpt lat="48.43645" lon="-123.41717000000001">
    <ele>24.220000000000002</ele>
   </trkpt>
   <trkpt lat="48.43663" lon="-123.41732">
    <ele>24.26</ele>
   </trkpt>
   <trkpt lat="48.436800000000005" lon="-123.41759">
    <ele>24.200000000000003</ele>
   </trkpt>
   <trkpt lat="48.436960000000006" lon="-123.41795">
    <ele>24.39</ele>
   </trkpt>
   <trkpt lat="48.43713" lon="-123.41836">
    <ele>24.76</ele>
   </trkpt>
   <trkpt lat="48.437200000000004" lon="-123.41861000000002">
    <ele>25.030000000000005</ele>
   </trkpt>
   <trkpt lat="48.437290000000004" lon="-123.41875000000002">
    <ele>25.01</ele>
   </trkpt>
   <trkpt lat="48.43732000000001" lon="-123.41873000000001">
    <ele>24.98</ele>
   </trkpt>
   <trkpt lat="48.437310000000004" lon="-123.41868000000001">
    <ele>24.98</ele>
   </trkpt>
   <trkpt lat="48.437290000000004" lon="-123.41863000000001">
    <ele>24.98</ele>
   </trkpt>
   <trkpt lat="48.43723000000001" lon="-123.41795">
    <ele>23.39</ele>
   </trkpt>
   <trkpt lat="48.43721000000001" lon="-123.41728">
    <ele>22.2</ele>
   </trkpt>
   <trkpt lat="48.43722" lon="-123.41683">
    <ele>21.580000000000002</ele>
   </trkpt>
   <trkpt lat="48.43726" lon="-123.41634">
    <ele>21.34</ele>
   </trkpt>
   <trkpt lat="48.43738575144709" lon="-123.41514430346395">
    <ele>20.17</ele>
   </trkpt>
   <trkpt lat="48.43751149050744" lon="-123.41394860100877">
    <ele>21.09</ele>
   </trkpt>
   <trkpt lat="48.4376372171809" lon="-123.41275289263504">
    <ele>21.32</ele>
   </trkpt>
   <trkpt lat="48.437762931467375" lon="-123.41155717834323">
    <ele>21.17</ele>
   </trkpt>
   <trkpt lat="48.43788863336675" lon="-123.41036145813389">
    <ele>22.140000000000004</ele>
   </trkpt>
   <trkpt lat="48.4380143228789" lon="-123.40916573200755">
    <ele>22.47</ele>
   </trkpt>
   <trkpt lat="48.438140000000004" lon="-123.40797">
    <ele>21.330000000000002</ele>
   </trkpt>
   <trkpt lat="48.43817000000001" lon="-123.40790000000001">
    <ele>21.330000000000002</ele>
   </trkpt>
   <trkpt lat="48.43818" lon="-123.40726000000001">
    <ele>19.83</ele>
   </trkpt>
   <trkpt lat="48.438120000000005" lon="-123.40619000000001">
    <ele>20.07</ele>
   </trkpt>
   <trkpt lat="48.43807" lon="-123.40616000000001">
    <ele>20.07</ele>
   </trkpt>
   <trkpt lat="48.438" lon="-123.406">
    <ele>20.28</ele>
   </trkpt>
   <trkpt lat="48.4378" lon="-123.40515">
    <ele>21.310000000000002</ele>
   </trkpt>
   <trkpt lat="48.43753667240722" lon="-123.40433665826353">
    <ele>20.42</ele>
   </trkpt>
   <trkpt lat="48.43727333908311" lon="-123.40352332495878">
    <ele>19.24</ele>
   </trkpt>
   <trkpt lat="48.43701" lon="-123.40271000000001">
    <ele>19.290000000000003</ele>
   </trkpt>
   <trkpt lat="48.43697" lon="-123.40255">
    <ele>19.28</ele>
   </trkpt>
   <trkpt lat="48.437845000372555" lon="-123.40224500526385">
    <ele>19.450000000000003</ele>
   </trkpt>
   <trkpt lat="48.43872" lon="-123.40194000000001">
    <ele>16.71</ele>
   </trkpt>
   <trkpt lat="48.439310000000006" lon="-123.40177000000001">
    <ele>12.68</ele>
   </trkpt>
   <trkpt lat="48.439690000000006" lon="-123.40162000000001">
    <ele>11.080000000000002</ele>
   </trkpt>
   <trkpt lat="48.44052500030777" lon="-123.40134500452696">
    <ele>12.0</ele>
   </trkpt>
   <trkpt lat="48.44136" lon="-123.40107">
    <ele>17.18</ele>
   </trkpt>
   <trkpt lat="48.44153000000001" lon="-123.40140000000001">
    <ele>17.92</ele>
   </trkpt>
   <trkpt lat="48.441860000000005" lon="-123.40214000000002">
    <ele>18.7</ele>
   </trkpt>
   <trkpt lat="48.44255000037945" lon="-123.40192667246731">
    <ele>15.02</ele>
   </trkpt>
   <trkpt lat="48.44324000036458" lon="-123.40171333913867">
    <ele>11.88</ele>
   </trkpt>
   <trkpt lat="48.44393" lon="-123.40150000000001">
    <ele>12.520000000000001</ele>
   </trkpt>
   <trkpt lat="48.444430000000004" lon="-123.40134">
    <ele>13.96</ele>
   </trkpt>
   <trkpt lat="48.44465" lon="-123.40125">
    <ele>15.040000000000001</ele>
   </trkpt>
   <trkpt lat="48.44513000014849" lon="-123.40097500270161">
    <ele>16.330000000000002</ele>
   </trkpt>
   <trkpt lat="48.44561" lon="-123.40070000000001">
    <ele>15.620000000000001</ele>
   </trkpt>
   <trkpt lat="48.44619" lon="-123.40039000000002">
    <ele>14.4</ele>
   </trkpt>
   <trkpt lat="48.446580000000004" lon="-123.40031">
    <ele>14.33</ele>
   </trkpt>
   <trkpt lat="48.44682" lon="-123.40035">
    <ele>14.49</ele>
   </trkpt>
   <trkpt lat="48.447300000000006" lon="-123.40049">
    <ele>15.27</ele>
   </trkpt>
   <trkpt lat="48.447410000000005" lon="-123.40050000000001">
    <ele>15.490000000000002</ele>
   </trkpt>
   <trkpt lat="48.44762" lon="-123.40046000000001">
    <ele>16.05</ele>
   </trkpt>
   <trkpt lat="48.447790000000005" lon="-123.40037000000001">
    <ele>16.59</ele>
   </trkpt>
   <trkpt lat="48.44821" lon="-123.40001000000001">
    <ele>17.310000000000002</ele>
   </trkpt>
   <trkpt lat="48.44879750591218" lon="-123.39933502343735">
    <ele>20.540000000000003</ele>
   </trkpt>
   <trkpt lat="48.44938500787724" lon="-123.39866003125682">
    <ele>23.41</ele>
   </trkpt>
   <trkpt lat="48.44997250589501" lon="-123.39798502345785">
    <ele>24.470000000000002</ele>
   </trkpt>
   <trkpt lat="48.45056" lon="-123.39731">
    <ele>22.79</ele>
   </trkpt>
   <trkpt lat="48.45056" lon="-123.39730000000002">
    <ele>22.76</ele>
   </trkpt>
   <trkpt lat="48.45121000697658" lon="-123.3965675281254">
    <ele>19.21</ele>
   </trkpt>
   <trkpt lat="48.45186000930501" lon="-123.39583503749795">
    <ele>16.740000000000002</ele>
   </trkpt>
   <trkpt lat="48.45251000698504" lon="-123.39510252811691">
    <ele>14.33</ele>
   </trkpt>
   <trkpt lat="48.453160000000004" lon="-123.39437000000001">
    <ele>15.070000000000002</ele>
   </trkpt>
   <trkpt lat="48.453625001345806" lon="-123.39382500492188">
    <ele>15.93</ele>
   </trkpt>
   <trkpt lat="48.45409" lon="-123.39328">
    <ele>15.320000000000002</ele>
   </trkpt>
   <trkpt lat="48.454190000000004" lon="-123.39303000000001">
    <ele>15.330000000000002</ele>
   </trkpt>
   <trkpt lat="48.45422000000001" lon="-123.39291000000001">
    <ele>15.23</ele>
   </trkpt>
   <trkpt lat="48.454660000000004" lon="-123.39263000000001">
    <ele>14.040000000000001</ele>
   </trkpt>
   <trkpt lat="48.45496000000001" lon="-123.39252">
    <ele>13.02</ele>
   </trkpt>
   <trkpt lat="48.45526" lon="-123.39243">
    <ele>12.15</ele>
   </trkpt>
   <trkpt lat="48.455650000000006" lon="-123.39226000000001">
    <ele>9.49</ele>
   </trkpt>
   <trkpt lat="48.455740000000006" lon="-123.39219000000001">
    <ele>9.49</ele>
   </trkpt>
   <trkpt lat="48.456" lon="-123.39203">
    <ele>8.650000000000002</ele>
   </trkpt>
   <trkpt lat="48.45618" lon="-123.39189">
    <ele>8.57</ele>
   </trkpt>
   <trkpt lat="48.45627" lon="-123.39185">
    <ele>8.63</ele>
   </trkpt>
   <trkpt lat="48.45679333518679" lon="-123.39139334270746">
    <ele>10.57</ele>
   </trkpt>
   <trkpt lat="48.45731666856696" lon="-123.39093667600008">
    <ele>14.4</ele>
   </trkpt>
   <trkpt lat="48.457840000000004" lon="-123.39048000000001">
    <ele>19.020000000000003</ele>
   </trkpt>
   <trkpt lat="48.45783" lon="-123.39049000000001">
    <ele>18.950000000000003</ele>
   </trkpt>
   <trkpt lat="48.457950000000004" lon="-123.39039000000001">
    <ele>20.060000000000002</ele>
   </trkpt>
   <trkpt lat="48.458040000000004" lon="-123.39049000000001">
    <ele>20.470000000000002</ele>
   </trkpt>
   <trkpt lat="48.458290000000005" lon="-123.39024">
    <ele>21.75</ele>
   </trkpt>
   <trkpt lat="48.45821" lon="-123.38983">
    <ele>21.970000000000002</ele>
   </trkpt>
   <trkpt lat="48.457960024948264" lon="-123.38875664022648">
    <ele>22.320000000000004</ele>
   </trkpt>
   <trkpt lat="48.45771003991582" lon="-123.3876832910237">
    <ele>23.21</ele>
   </trkpt>
   <trkpt lat="48.45746004490282" lon="-123.3866099523919">
    <ele>24.67</ele>
   </trkpt>
   <trkpt lat="48.45721003990945" lon="-123.38553662433127">
    <ele>25.62</ele>
   </trkpt>
   <trkpt lat="48.45696002493593" lon="-123.38446330684208">
    <ele>25.980000000000004</ele>
   </trkpt>
   <trkpt lat="48.45671" lon="-123.38339">
    <ele>26.140000000000004</ele>
   </trkpt>
   <trkpt lat="48.456493341219364" lon="-123.38243665858461">
    <ele>25.78</ele>
   </trkpt>
   <trkpt lat="48.45627667456517" lon="-123.38148332530623">
    <ele>24.46</ele>
   </trkpt>
   <trkpt lat="48.45606" lon="-123.38053000000001">
    <ele>23.680000000000003</ele>
   </trkpt>
   <trkpt lat="48.45604" lon="-123.38031000000001">
    <ele>23.44</ele>
   </trkpt>
   <trkpt lat="48.456030000000005" lon="-123.37972">
    <ele>23.19</ele>
   </trkpt>
   <trkpt lat="48.45609" lon="-123.37914">
    <ele>22.950000000000003</ele>
   </trkpt>
   <trkpt lat="48.45618" lon="-123.37872000000002">
    <ele>23.07</ele>
   </trkpt>
   <trkpt lat="48.45627" lon="-123.37842">
    <ele>23.270000000000003</ele>
   </trkpt>
   <trkpt lat="48.45655000000001" lon="-123.37776000000001">
    <ele>23.200000000000003</ele>
   </trkpt>
   <trkpt lat="48.45708000136611" lon="-123.3772000058381">
    <ele>23.62</ele>
   </trkpt>
   <trkpt lat="48.45761" lon="-123.37664000000001">
    <ele>24.400000000000002</ele>
   </trkpt>
   <trkpt lat="48.45824667047593" lon="-123.37597668330757">
    <ele>25.62</ele>
   </trkpt>
   <trkpt lat="48.45888333714009" lon="-123.37531334997718">
    <ele>26.72</ele>
   </trkpt>
   <trkpt lat="48.459520000000005" lon="-123.37465000000002">
    <ele>27.37</ele>
   </trkpt>
   <trkpt lat="48.459590000000006" lon="-123.37453000000001">
    <ele>27.51</ele>
   </trkpt>
   <trkpt lat="48.45984000000001" lon="-123.37398">
    <ele>27.87</ele>
   </trkpt>
   <trkpt lat="48.4601200036457" lon="-123.37306500498426">
    <ele>28.490000000000002</ele>
   </trkpt>
   <trkpt lat="48.46040000000001" lon="-123.37215">
    <ele>28.330000000000002</ele>
   </trkpt>
   <trkpt lat="48.46058000000001" lon="-123.37174000000002">
    <ele>28.05</ele>
   </trkpt>
   <trkpt lat="48.46088" lon="-123.37122000000001">
    <ele>27.990000000000002</ele>
   </trkpt>
   <trkpt lat="48.46150502202869" lon="-123.3703675734874">
    <ele>27.770000000000003</ele>
   </trkpt>
   <trkpt lat="48.46213003776238" lon="-123.3695151259822">
    <ele>27.4</ele>
   </trkpt>
   <trkpt lat="48.462755047200815" lon="-123.36866265748363">
    <ele>27.3</ele>
   </trkpt>
   <trkpt lat="48.463380050343666" lon="-123.36781016799091">
    <ele>27.73</ele>
   </trkpt>
   <trkpt lat="48.46400504719068" lon="-123.36695765750326">
    <ele>27.1</ele>
   </trkpt>
   <trkpt lat="48.464630037741564" lon="-123.36610512601993">
    <ele>26.94</ele>
   </trkpt>
   <trkpt lat="48.46525502199598" lon="-123.36525257354019">
    <ele>27.240000000000002</ele>
   </trkpt>
   <trkpt lat="48.465880000000006" lon="-123.3644">
    <ele>28.0</ele>
   </trkpt>
   <trkpt lat="48.46611" lon="-123.36413000000002">
    <ele>28.240000000000002</ele>
   </trkpt>
   <trkpt lat="48.46627" lon="-123.36396">
    <ele>28.240000000000002</ele>
   </trkpt>
   <trkpt lat="48.46649000000001" lon="-123.36381000000002">
    <ele>28.560000000000002</ele>
   </trkpt>
   <trkpt lat="48.466480000000004" lon="-123.36381000000002">
    <ele>28.560000000000002</ele>
   </trkpt>
   <trkpt lat="48.46696000000001" lon="-123.36353000000001">
    <ele>28.690000000000005</ele>
   </trkpt>
   <trkpt lat="48.467510000000004" lon="-123.36324">
    <ele>28.860000000000003</ele>
   </trkpt>
   <trkpt lat="48.46775" lon="-123.36313000000001">
    <ele>29.310000000000002</ele>
   </trkpt>
   <trkpt lat="48.46792000000001" lon="-123.36307000000001">
    <ele>29.550000000000004</ele>
   </trkpt>
   <trkpt lat="48.468210000000006" lon="-123.36280000000001">
    <ele>29.220000000000002</ele>
   </trkpt>
   <trkpt lat="48.46844" lon="-123.36262">
    <ele>29.01</ele>
   </trkpt>
   <trkpt lat="48.46911000079307" lon="-123.36221500529726">
    <ele>29.26</ele>
   </trkpt>
   <trkpt lat="48.46978000000001" lon="-123.36181">
    <ele>29.78</ele>
   </trkpt>
   <trkpt lat="48.470270000000006" lon="-123.36146000000001">
    <ele>29.93</ele>
   </trkpt>
   <trkpt lat="48.470310000000005" lon="-123.36129000000001">
    <ele>29.84</ele>
   </trkpt>
   <trkpt lat="48.470330000000004" lon="-123.36127">
    <ele>29.84</ele>
   </trkpt>
   <trkpt lat="48.47052" lon="-123.36131">
    <ele>29.880000000000003</ele>
   </trkpt>
   <trkpt lat="48.470530000000004" lon="-123.36122000000002">
    <ele>30.09</ele>
   </trkpt>
   <trkpt lat="48.470310000000005" lon="-123.36117000000002">
    <ele>30.130000000000003</ele>
   </trkpt>
   <trkpt lat="48.47032" lon="-123.36103000000001">
    <ele>30.11</ele>
   </trkpt>
   <trkpt lat="48.47035" lon="-123.361">
    <ele>30.11</ele>
   </trkpt>
   <trkpt lat="48.47048667533174" lon="-123.36000000536909">
    <ele>30.070000000000004</ele>
   </trkpt>
   <trkpt lat="48.47062334200084" lon="-123.35900000535145">
    <ele>33.260000000000005</ele>
   </trkpt>
   <trkpt lat="48.470760000000006" lon="-123.358">
    <ele>38.93000000000001</ele>
   </trkpt>
   <trkpt lat="48.47075" lon="-123.35772000000001">
    <ele>40.300000000000004</ele>
   </trkpt>
   <trkpt lat="48.470780000000005" lon="-123.35739000000001">
    <ele>41.550000000000004</ele>
   </trkpt>
   <trkpt lat="48.47081000000001" lon="-123.35738">
    <ele>41.800000000000004</ele>
   </trkpt>
   <trkpt lat="48.470850000000006" lon="-123.35717000000001">
    <ele>42.480000000000004</ele>
   </trkpt>
   <trkpt lat="48.470890000000004" lon="-123.35711">
    <ele>42.480000000000004</ele>
   </trkpt>
   <trkpt lat="48.470960000000005" lon="-123.35661">
    <ele>43.60000000000001</ele>
   </trkpt>
   <trkpt lat="48.47112000182005" lon="-123.35596000209003">
    <ele>41.730000000000004</ele>
   </trkpt>
   <trkpt lat="48.47128000000001" lon="-123.35531000000002">
    <ele>37.02</ele>
   </trkpt>
   <trkpt lat="48.47129" lon="-123.35518">
    <ele>38.650000000000006</ele>
   </trkpt>
   <trkpt lat="48.47135" lon="-123.35496">
    <ele>38.56</ele>
   </trkpt>
   <trkpt lat="48.4714" lon="-123.3546">
    <ele>36.95</ele>
   </trkpt>
   <trkpt lat="48.47153667703943" lon="-123.35350667241515">
    <ele>35.79</ele>
   </trkpt>
   <trkpt lat="48.47167334372378" lon="-123.35241333894055">
    <ele>33.85</ele>
   </trkpt>
   <trkpt lat="48.471810000000005" lon="-123.35132000000002">
    <ele>33.52</ele>
   </trkpt>
   <trkpt lat="48.47177000000001" lon="-123.35124">
    <ele>33.57</ele>
   </trkpt>
   <trkpt lat="48.47178" lon="-123.35105000000001">
    <ele>33.53</ele>
   </trkpt>
   <trkpt lat="48.47182" lon="-123.35100000000001">
    <ele>33.53</ele>
   </trkpt>
   <trkpt lat="48.47187" lon="-123.35052">
    <ele>33.230000000000004</ele>
   </trkpt>
   <trkpt lat="48.471920000000004" lon="-123.35026">
    <ele>33.13</ele>
   </trkpt>
   <trkpt lat="48.472" lon="-123.34952000000001">
    <ele>33.160000000000004</ele>
   </trkpt>
   <trkpt lat="48.47205" lon="-123.34901">
    <ele>33.2</ele>
   </trkpt>
   <trkpt lat="48.47207" lon="-123.3486">
    <ele>33.1</ele>
   </trkpt>
   <trkpt lat="48.472060000000006" lon="-123.34833">
    <ele>33.150000000000006</ele>
   </trkpt>
   <trkpt lat="48.47202" lon="-123.34797">
    <ele>33.260000000000005</ele>
   </trkpt>
   <trkpt lat="48.47186000000001" lon="-123.34703">
    <ele>34.28</ele>
   </trkpt>
   <trkpt lat="48.47182" lon="-123.34698000000002">
    <ele>34.45</ele>
   </trkpt>
   <trkpt lat="48.471790000000006" lon="-123.34667">
    <ele>34.47</ele>
   </trkpt>
   <trkpt lat="48.47157000000001" lon="-123.34539000000001">
    <ele>35.65</ele>
   </trkpt>
   <trkpt lat="48.471450000000004" lon="-123.34493">
    <ele>36.06</ele>
   </trkpt>
   <trkpt lat="48.47128000000001" lon="-123.34452000000002">
    <ele>37.27</ele>
   </trkpt>
   <trkpt lat="48.471160000000005" lon="-123.34427000000001">
    <ele>37.970000000000006</ele>
   </trkpt>
   <trkpt lat="48.470890000000004" lon="-123.34394">
    <ele>40.25</ele>
   </trkpt>
   <trkpt lat="48.47077" lon="-123.34373000000001">
    <ele>42.800000000000004</ele>
   </trkpt>
   <trkpt lat="48.47059" lon="-123.3435">
    <ele>44.480000000000004</ele>
   </trkpt>
   <trkpt lat="48.47054000000001" lon="-123.34349000000002">
    <ele>44.480000000000004</ele>
   </trkpt>
   <trkpt lat="48.47025000000001" lon="-123.34306000000001">
    <ele>47.370000000000005</ele>
   </trkpt>
   <trkpt lat="48.46974" lon="-123.34240000000001">
    <ele>50.22</ele>
   </trkpt>
   <trkpt lat="48.46914" lon="-123.34166">
    <ele>51.050000000000004</ele>
   </trkpt>
   <trkpt lat="48.468920000000004" lon="-123.34135">
    <ele>50.97</ele>
   </trkpt>
   <trkpt lat="48.46882" lon="-123.34116000000002">
    <ele>50.14</ele>
   </trkpt>
   <trkpt lat="48.468630000000005" lon="-123.34059">
    <ele>50.06000000000001</ele>
   </trkpt>
   <trkpt lat="48.468590000000006" lon="-123.34031000000002">
    <ele>49.92</ele>
   </trkpt>
   <trkpt lat="48.46857000000001" lon="-123.33991">
    <ele>49.620000000000005</ele>
   </trkpt>
   <trkpt lat="48.468565003240435" lon="-123.3390449998407">
    <ele>48.92</ele>
   </trkpt>
   <trkpt lat="48.468560000000004" lon="-123.33818000000001">
    <ele>51.58</ele>
   </trkpt>
   <trkpt lat="48.46853" lon="-123.33695000000002">
    <ele>52.550000000000004</ele>
   </trkpt>
   <trkpt lat="48.46853" lon="-123.33617000000001">
    <ele>51.260000000000005</ele>
   </trkpt>
   <trkpt lat="48.46862" lon="-123.33607">
    <ele>51.050000000000004</ele>
   </trkpt>
   <trkpt lat="48.46862" lon="-123.33520000000001">
    <ele>49.17</ele>
   </trkpt>
   <trkpt lat="48.46862251934054" lon="-123.33398000014992">
    <ele>46.25000000000001</ele>
   </trkpt>
   <trkpt lat="48.468625025787425" lon="-123.33276000017901">
    <ele>44.51</ele>
   </trkpt>
   <trkpt lat="48.468627519340664" lon="-123.33154000008791">
    <ele>43.870000000000005</ele>
   </trkpt>
   <trkpt lat="48.468630000000005" lon="-123.33032000000001">
    <ele>43.82000000000001</ele>
   </trkpt>
   <trkpt lat="48.46861500256636" lon="-123.32954999968396">
    <ele>44.480000000000004</ele>
   </trkpt>
   <trkpt lat="48.4686" lon="-123.32878000000001">
    <ele>45.25000000000001</ele>
   </trkpt>
   <trkpt lat="48.46860003733406" lon="-123.32758142857068">
    <ele>46.220000000000006</ele>
   </trkpt>
   <trkpt lat="48.46860006222346" lon="-123.32638285713988">
    <ele>46.650000000000006</ele>
   </trkpt>
   <trkpt lat="48.468600074668146" lon="-123.32518428570822">
    <ele>46.98</ele>
   </trkpt>
   <trkpt lat="48.468600074668146" lon="-123.32398571427623">
    <ele>47.470000000000006</ele>
   </trkpt>
   <trkpt lat="48.46860006222346" lon="-123.32278714284456">
    <ele>48.260000000000005</ele>
   </trkpt>
   <trkpt lat="48.46860003733406" lon="-123.32158857141376">
    <ele>49.510000000000005</ele>
   </trkpt>
   <trkpt lat="48.4686" lon="-123.32039">
    <ele>50.800000000000004</ele>
   </trkpt>
   <trkpt lat="48.46857000000001" lon="-123.31952000000001">
    <ele>51.67000000000001</ele>
   </trkpt>
   <trkpt lat="48.468520000000005" lon="-123.31931000000002">
    <ele>51.78000000000001</ele>
   </trkpt>
   <trkpt lat="48.46848000000001" lon="-123.31923">
    <ele>51.9</ele>
   </trkpt>
   <trkpt lat="48.46846000000001" lon="-123.3182">
    <ele>53.61000000000001</ele>
   </trkpt>
   <trkpt lat="48.468410000000006" lon="-123.31798">
    <ele>54.35</ele>
   </trkpt>
   <trkpt lat="48.468340000000005" lon="-123.31782000000001">
    <ele>54.35</ele>
   </trkpt>
   <trkpt lat="48.46831" lon="-123.31777000000001">
    <ele>54.96</ele>
   </trkpt>
   <trkpt lat="48.468160000000005" lon="-123.31762">
    <ele>55.52</ele>
   </trkpt>
   <trkpt lat="48.46808" lon="-123.31757">
    <ele>56.040000000000006</ele>
   </trkpt>
   <trkpt lat="48.46723" lon="-123.31734000000002">
    <ele>58.28</ele>
   </trkpt>
   <trkpt lat="48.466590000000004" lon="-123.31694000000002">
    <ele>58.53</ele>
   </trkpt>
   <trkpt lat="48.46604666951716" lon="-123.3163633209539">
    <ele>59.230000000000004</ele>
   </trkpt>
   <trkpt lat="48.46550333615346" lon="-123.3157866542552">
    <ele>59.72</ele>
   </trkpt>
   <trkpt lat="48.464960000000005" lon="-123.31521000000001">
    <ele>60.81</ele>
   </trkpt>
   <trkpt lat="48.464740000000006" lon="-123.31550000000001">
    <ele>60.75000000000001</ele>
   </trkpt>
   <trkpt lat="48.464380000000006" lon="-123.31584000000001">
    <ele>60.64000000000001</ele>
   </trkpt>
   <trkpt lat="48.46408" lon="-123.31605">
    <ele>60.28000000000001</ele>
   </trkpt>
   <trkpt lat="48.463860000000004" lon="-123.31615000000001">
    <ele>59.60000000000001</ele>
   </trkpt>
   <trkpt lat="48.463570000000004" lon="-123.31628">
    <ele>58.470000000000006</ele>
   </trkpt>
   <trkpt lat="48.463080000000005" lon="-123.31633000000001">
    <ele>58.43</ele>
   </trkpt>
   <trkpt lat="48.46285" lon="-123.31631000000002">
    <ele>58.650000000000006</ele>
   </trkpt>
   <trkpt lat="48.46253" lon="-123.31625000000001">
    <ele>59.330000000000005</ele>
   </trkpt>
   <trkpt lat="48.46208000000001" lon="-123.31605">
    <ele>60.42</ele>
   </trkpt>
   <trkpt lat="48.461740000000006" lon="-123.31581000000001">
    <ele>61.56</ele>
   </trkpt>
   <trkpt lat="48.46144" lon="-123.31552">
    <ele>62.5</ele>
   </trkpt>
   <trkpt lat="48.461110000000005" lon="-123.31509000000001">
    <ele>63.59</ele>
   </trkpt>
   <trkpt lat="48.460930000000005" lon="-123.3148">
    <ele>64.05000000000001</ele>
   </trkpt>
   <trkpt lat="48.46078000000001" lon="-123.31447000000001">
    <ele>64.56</ele>
   </trkpt>
   <trkpt lat="48.46069000000001" lon="-123.31423000000001">
    <ele>64.89</ele>
   </trkpt>
   <trkpt lat="48.46045" lon="-123.31348000000001">
    <ele>64.97</ele>
   </trkpt>
   <trkpt lat="48.46036" lon="-123.31302000000001">
    <ele>65.28</ele>
   </trkpt>
   <trkpt lat="48.46031000000001" lon="-123.31211">
    <ele>66.05000000000001</ele>
   </trkpt>
   <trkpt lat="48.460350000000005" lon="-123.3114">
    <ele>66.03</ele>
   </trkpt>
   <trkpt lat="48.46045" lon="-123.31082">
    <ele>65.27000000000001</ele>
   </trkpt>
   <trkpt lat="48.46054" lon="-123.31047000000001">
    <ele>65.2</ele>
   </trkpt>
   <trkpt lat="48.460530000000006" lon="-123.31049000000002">
    <ele>65.21000000000001</ele>
   </trkpt>
   <trkpt lat="48.46074" lon="-123.30992">
    <ele>64.69000000000001</ele>
   </trkpt>
   <trkpt lat="48.460930000000005" lon="-123.30952">
    <ele>64.47</ele>
   </trkpt>
   <trkpt lat="48.46112" lon="-123.3092">
    <ele>64.5</ele>
   </trkpt>
   <trkpt lat="48.46144" lon="-123.3088">
    <ele>64.7</ele>
   </trkpt>
   <trkpt lat="48.461020000000005" lon="-123.30803000000002">
    <ele>64.53999999999999</ele>
   </trkpt>
   <trkpt lat="48.46157" lon="-123.30733000000001">
    <ele>64.0</ele>
   </trkpt>
  </trkseg>
 </trk>
</gpx>
